[{"OBJECT_NAME":"OBJECT D","OBJECT_ID":"2024-173D","EPOCH":"2026-03-09T23:30:29.956896","MEAN_MOTION":15.27005733,"ECCENTRICITY":0.00090093,"INCLINATION":97.3606,"RA_OF_ASC_NODE":149.3901,"ARG_OF_PERICENTER":241.6081,"MEAN_ANOMALY":118.425,"EPHEMERIS_TYPE":0,"CLASSIFICATION_TYPE":"U","NORAD_CAT_ID":61230,"ELEMENT_SET_NO":999,"REV_AT_EPOCH":8130,"BSTAR":0.00072064626,"MEAN_MOTION_DOT":0.00019078,"MEAN_MOTION_DDOT":0},{"OBJECT_NAME":"STARLINK-33883","OBJECT_ID":"2025-091G","EPOCH":"2026-03-09T23:25:40.714752","MEAN_MOTION":15.27601658,"ECCENTRICITY":0.00011757,"INCLINATION":42.9925,"RA_OF_ASC_NODE":51.1083,"ARG_OF_PERICENTER":132.9192,"MEAN_ANOMALY":227.1758,"EPHEMERIS_TYPE":0,"CLASSIFICATION_TYPE":"U","NORAD_CAT_ID":63781,"ELEMENT_SET_NO":999,"REV_AT_EPOCH":4894,"BSTAR":0.00084161717,"MEAN_MOTION_DOT":0.00022985,"MEAN_MOTION_DDOT":0}]
